CORVUS BC4              
1 43767U 18099K   26068.65923737  .00005714  00000+0  33980-3 0  9990
2 43767  97.4206 114.5457 0008046 356.5821   3.5354 15.11615710397368
STARLINK-3975           
1 52620U 22052Y   26068.87062468  .00001500  00000+0  11228-3 0  9991
2 52620  53.2156 283.3126 0001215  89.4731 270.6400 15.08853082210805
